[{"id":110000,"title":"\u5317\u4eac\u5e02","parentId":0,"zipcode":0},{"id":110101,"title":"\u4e1c\u57ce\u533a","parentId":110000,"zipcode":100010},{"id":110102,"title":"\u897f\u57ce\u533a","parentId":110000,"zipcode":100032},{"id":110105,"title":"\u671d\u9633\u533a","parentId":110000,"zipcode":100020},{"id":110106,"title":"\u4e30\u53f0\u533a","parentId":110000,"zipcode":100071},{"id":110107,"title":"\u77f3\u666f\u5c71\u533a","parentId":110000,"zipcode":100043},{"id":110108,"title":"\u6d77\u6dc0\u533a","parentId":110000,"zipcode":100089},{"id":110109,"title":"\u95e8\u5934\u6c9f\u533a","parentId":110000,"zipcode":102300},{"id":110111,"title":"\u623f\u5c71\u533a","parentId":110000,"zipcode":102488},{"id":110112,"title":"\u901a\u5dde\u533a","parentId":110000,"zipcode":101149},{"id":110113,"title":"\u987a\u4e49\u533a","parentId":110000,"zipcode":101300},{"id":110114,"title":"\u660c\u5e73\u533a","parentId":110000,"zipcode":102200},{"id":110115,"title":"\u5927\u5174\u533a","parentId":110000,"zipcode":102600},{"id":110116,"title":"\u6000\u67d4\u533a","parentId":110000,"zipcode":101400},{"id":110117,"title":"\u5e73\u8c37\u533a","parentId":110000,"zipcode":101200},{"id":110118,"title":"\u5bc6\u4e91\u533a","parentId":110000,"zipcode":101500},{"id":110119,"title":"\u5ef6\u5e86\u533a","parentId":110000,"zipcode":102100},{"id":120000,"title":"\u5929\u6d25\u5e02","parentId":0,"zipcode":0},{"id":120103,"title":"\u6cb3\u897f\u533a","parentId":120000,"zipcode":300202},{"id":120101,"title":"\u548c\u5e73\u533a","parentId":120000,"zipcode":300041},{"id":120102,"title":"\u6cb3\u4e1c\u533a","parentId":120000,"zipcode":300171},{"id":120104,"title":"\u5357\u5f00\u533a","parentId":120000,"zipcode":300110},{"id":120105,"title":"\u6cb3\u5317\u533a","parentId":120000,"zipcode":300143},{"id":120106,"title":"\u7ea2\u6865\u533a","parentId":120000,"zipcode":300131},{"id":120110,"title":"\u4e1c\u4e3d\u533a","parentId":120000,"zipcode":300300},{"id":120111,"title":"\u897f\u9752\u533a","parentId":120000,"zipcode":300380},{"id":120112,"title":"\u6d25\u5357\u533a","parentId":120000,"zipcode":300350},{"id":120113,"title":"\u5317\u8fb0\u533a","parentId":120000,"zipcode":300400},{"id":120114,"title":"\u6b66\u6e05\u533a","parentId":120000,"zipcode":301700},{"id":120115,"title":"\u5b9d\u577b\u533a","parentId":120000,"zipcode":301800},{"id":120116,"title":"\u6ee8\u6d77\u65b0\u533a","parentId":120000,"zipcode":300451},{"id":120117,"title":"\u5b81\u6cb3\u533a","parentId":120000,"zipcode":301500},{"id":120118,"title":"\u9759\u6d77\u533a","parentId":120000,"zipcode":301600},{"id":120119,"title":"\u84df\u5dde\u533a","parentId":120000,"zipcode":301900},{"id":130000,"title":"\u6cb3\u5317\u7701","parentId":0,"zipcode":0},{"id":130100,"title":"\u77f3\u5bb6\u5e84\u5e02","parentId":130000,"zipcode":50011},{"id":130200,"title":"\u5510\u5c71\u5e02","parentId":130000,"zipcode":63000},{"id":130300,"title":"\u79e6\u7687\u5c9b\u5e02","parentId":130000,"zipcode":66000},{"id":130400,"title":"\u90af\u90f8\u5e02","parentId":130000,"zipcode":56002},{"id":130500,"title":"\u90a2\u53f0\u5e02","parentId":130000,"zipcode":54001},{"id":130600,"title":"\u4fdd\u5b9a\u5e02","parentId":130000,"zipcode":71052},{"id":130700,"title":"\u5f20\u5bb6\u53e3\u5e02","parentId":130000,"zipcode":75000},{"id":130800,"title":"\u627f\u5fb7\u5e02","parentId":130000,"zipcode":67000},{"id":130900,"title":"\u6ca7\u5dde\u5e02","parentId":130000,"zipcode":61001},{"id":131000,"title":"\u5eca\u574a\u5e02","parentId":130000,"zipcode":65000},{"id":131100,"title":"\u8861\u6c34\u5e02","parentId":130000,"zipcode":53000},{"id":140000,"title":"\u5c71\u897f\u7701","parentId":0,"zipcode":0},{"id":140100,"title":"\u592a\u539f\u5e02","parentId":140000,"zipcode":30082},{"id":140200,"title":"\u5927\u540c\u5e02","parentId":140000,"zipcode":37008},{"id":140300,"title":"\u9633\u6cc9\u5e02","parentId":140000,"zipcode":45000},{"id":140400,"title":"\u957f\u6cbb\u5e02","parentId":140000,"zipcode":46000},{"id":140500,"title":"\u664b\u57ce\u5e02","parentId":140000,"zipcode":48000},{"id":140600,"title":"\u6714\u5dde\u5e02","parentId":140000,"zipcode":38500},{"id":140700,"title":"\u664b\u4e2d\u5e02","parentId":140000,"zipcode":30600},{"id":140800,"title":"\u8fd0\u57ce\u5e02","parentId":140000,"zipcode":44000},{"id":140900,"title":"\u5ffb\u5dde\u5e02","parentId":140000,"zipcode":34000},{"id":141000,"title":"\u4e34\u6c7e\u5e02","parentId":140000,"zipcode":41000},{"id":141100,"title":"\u5415\u6881\u5e02","parentId":140000,"zipcode":33000},{"id":150000,"title":"\u5185\u8499\u53e4\u81ea\u6cbb\u533a","parentId":0,"zipcode":0},{"id":150100,"title":"\u547c\u548c\u6d69\u7279\u5e02","parentId":150000,"zipcode":10000},{"id":150200,"title":"\u5305\u5934\u5e02","parentId":150000,"zipcode":14025},{"id":150300,"title":"\u4e4c\u6d77\u5e02","parentId":150000,"zipcode":16000},{"id":150400,"title":"\u8d64\u5cf0\u5e02","parentId":150000,"zipcode":24000},{"id":150500,"title":"\u901a\u8fbd\u5e02","parentId":150000,"zipcode":28000},{"id":150600,"title":"\u9102\u5c14\u591a\u65af\u5e02","parentId":150000,"zipcode":17004},{"id":150700,"title":"\u547c\u4f26\u8d1d\u5c14\u5e02","parentId":150000,"zipcode":21008},{"id":150800,"title":"\u5df4\u5f66\u6dd6\u5c14\u5e02","parentId":150000,"zipcode":15001},{"id":150900,"title":"\u4e4c\u5170\u5bdf\u5e03\u5e02","parentId":150000,"zipcode":12000},{"id":152200,"title":"\u5174\u5b89\u76df","parentId":150000,"zipcode":137401},{"id":152500,"title":"\u9521\u6797\u90ed\u52d2\u76df","parentId":150000,"zipcode":26000},{"id":152900,"title":"\u963f\u62c9\u5584\u76df","parentId":150000,"zipcode":750306},{"id":210000,"title":"\u8fbd\u5b81\u7701","parentId":0,"zipcode":0},{"id":210100,"title":"\u6c88\u9633\u5e02","parentId":210000,"zipcode":110013},{"id":210200,"title":"\u5927\u8fde\u5e02","parentId":210000,"zipcode":116011},{"id":210300,"title":"\u978d\u5c71\u5e02","parentId":210000,"zipcode":114001},{"id":210400,"title":"\u629a\u987a\u5e02","parentId":210000,"zipcode":113008},{"id":210500,"title":"\u672c\u6eaa\u5e02","parentId":210000,"zipcode":117000},{"id":210600,"title":"\u4e39\u4e1c\u5e02","parentId":210000,"zipcode":118000},{"id":210700,"title":"\u9526\u5dde\u5e02","parentId":210000,"zipcode":121000},{"id":210800,"title":"\u8425\u53e3\u5e02","parentId":210000,"zipcode":115003},{"id":210900,"title":"\u961c\u65b0\u5e02","parentId":210000,"zipcode":123000},{"id":211000,"title":"\u8fbd\u9633\u5e02","parentId":210000,"zipcode":111000},{"id":211100,"title":"\u76d8\u9526\u5e02","parentId":210000,"zipcode":124010},{"id":211200,"title":"\u94c1\u5cad\u5e02","parentId":210000,"zipcode":112000},{"id":211300,"title":"\u671d\u9633\u5e02","parentId":210000,"zipcode":122000},{"id":211400,"title":"\u846b\u82a6\u5c9b\u5e02","parentId":210000,"zipcode":125000},{"id":220000,"title":"\u5409\u6797\u7701","parentId":0,"zipcode":0},{"id":220100,"title":"\u957f\u6625\u5e02","parentId":220000,"zipcode":130022},{"id":220200,"title":"\u5409\u6797\u5e02","parentId":220000,"zipcode":132011},{"id":220300,"title":"\u56db\u5e73\u5e02","parentId":220000,"zipcode":136000},{"id":220400,"title":"\u8fbd\u6e90\u5e02","parentId":220000,"zipcode":136200},{"id":220500,"title":"\u901a\u5316\u5e02","parentId":220000,"zipcode":134001},{"id":220600,"title":"\u767d\u5c71\u5e02","parentId":220000,"zipcode":134300},{"id":220700,"title":"\u677e\u539f\u5e02","parentId":220000,"zipcode":138000},{"id":220800,"title":"\u767d\u57ce\u5e02","parentId":220000,"zipcode":137000},{"id":222400,"title":"\u5ef6\u8fb9\u671d\u9c9c\u65cf\u81ea\u6cbb\u5dde","parentId":220000,"zipcode":133000},{"id":230000,"title":"\u9ed1\u9f99\u6c5f\u7701","parentId":0,"zipcode":0},{"id":230100,"title":"\u54c8\u5c14\u6ee8\u5e02","parentId":230000,"zipcode":150010},{"id":230200,"title":"\u9f50\u9f50\u54c8\u5c14\u5e02","parentId":230000,"zipcode":161005},{"id":230300,"title":"\u9e21\u897f\u5e02","parentId":230000,"zipcode":158100},{"id":230400,"title":"\u9e64\u5c97\u5e02","parentId":230000,"zipcode":154100},{"id":230500,"title":"\u53cc\u9e2d\u5c71\u5e02","parentId":230000,"zipcode":155100},{"id":230600,"title":"\u5927\u5e86\u5e02","parentId":230000,"zipcode":163000},{"id":230700,"title":"\u4f0a\u6625\u5e02","parentId":230000,"zipcode":153000},{"id":230800,"title":"\u4f73\u6728\u65af\u5e02","parentId":230000,"zipcode":154002},{"id":230900,"title":"\u4e03\u53f0\u6cb3\u5e02","parentId":230000,"zipcode":154600},{"id":231000,"title":"\u7261\u4e39\u6c5f\u5e02","parentId":230000,"zipcode":157000},{"id":231100,"title":"\u9ed1\u6cb3\u5e02","parentId":230000,"zipcode":164300},{"id":231200,"title":"\u7ee5\u5316\u5e02","parentId":230000,"zipcode":152000},{"id":232700,"title":"\u5927\u5174\u5b89\u5cad\u5730\u533a","parentId":230000,"zipcode":165000},{"id":310000,"title":"\u4e0a\u6d77\u5e02","parentId":0,"zipcode":0},{"id":310101,"title":"\u9ec4\u6d66\u533a","parentId":310000,"zipcode":200001},{"id":310104,"title":"\u5f90\u6c47\u533a","parentId":310000,"zipcode":200030},{"id":310105,"title":"\u957f\u5b81\u533a","parentId":310000,"zipcode":200050},{"id":310106,"title":"\u9759\u5b89\u533a","parentId":310000,"zipcode":200040},{"id":310107,"title":"\u666e\u9640\u533a","parentId":310000,"zipcode":200333},{"id":310109,"title":"\u8679\u53e3\u533a","parentId":310000,"zipcode":200086},{"id":310110,"title":"\u6768\u6d66\u533a","parentId":310000,"zipcode":200082},{"id":310112,"title":"\u95f5\u884c\u533a","parentId":310000,"zipcode":201100},{"id":310113,"title":"\u5b9d\u5c71\u533a","parentId":310000,"zipcode":201900},{"id":310114,"title":"\u5609\u5b9a\u533a","parentId":310000,"zipcode":201800},{"id":310115,"title":"\u6d66\u4e1c\u65b0\u533a","parentId":310000,"zipcode":200135},{"id":310116,"title":"\u91d1\u5c71\u533a","parentId":310000,"zipcode":200540},{"id":310117,"title":"\u677e\u6c5f\u533a","parentId":310000,"zipcode":201600},{"id":310118,"title":"\u9752\u6d66\u533a","parentId":310000,"zipcode":201700},{"id":310120,"title":"\u5949\u8d24\u533a","parentId":310000,"zipcode":201400},{"id":310151,"title":"\u5d07\u660e\u533a","parentId":310000,"zipcode":202150},{"id":320000,"title":"\u6c5f\u82cf\u7701","parentId":0,"zipcode":0},{"id":320100,"title":"\u5357\u4eac\u5e02","parentId":320000,"zipcode":210008},{"id":320200,"title":"\u65e0\u9521\u5e02","parentId":320000,"zipcode":214000},{"id":320300,"title":"\u5f90\u5dde\u5e02","parentId":320000,"zipcode":221003},{"id":320400,"title":"\u5e38\u5dde\u5e02","parentId":320000,"zipcode":213003},{"id":320500,"title":"\u82cf\u5dde\u5e02","parentId":320000,"zipcode":215002},{"id":320600,"title":"\u5357\u901a\u5e02","parentId":320000,"zipcode":226001},{"id":320700,"title":"\u8fde\u4e91\u6e2f\u5e02","parentId":320000,"zipcode":222002},{"id":320800,"title":"\u6dee\u5b89\u5e02","parentId":320000,"zipcode":223001},{"id":320900,"title":"\u76d0\u57ce\u5e02","parentId":320000,"zipcode":224005},{"id":321000,"title":"\u626c\u5dde\u5e02","parentId":320000,"zipcode":225002},{"id":321100,"title":"\u9547\u6c5f\u5e02","parentId":320000,"zipcode":212004},{"id":321200,"title":"\u6cf0\u5dde\u5e02","parentId":320000,"zipcode":225300},{"id":321300,"title":"\u5bbf\u8fc1\u5e02","parentId":320000,"zipcode":223800},{"id":330000,"title":"\u6d59\u6c5f\u7701","parentId":0,"zipcode":0},{"id":330100,"title":"\u676d\u5dde\u5e02","parentId":330000,"zipcode":310026},{"id":330200,"title":"\u5b81\u6ce2\u5e02","parentId":330000,"zipcode":315000},{"id":330300,"title":"\u6e29\u5dde\u5e02","parentId":330000,"zipcode":325000},{"id":330400,"title":"\u5609\u5174\u5e02","parentId":330000,"zipcode":314000},{"id":330500,"title":"\u6e56\u5dde\u5e02","parentId":330000,"zipcode":313000},{"id":330600,"title":"\u7ecd\u5174\u5e02","parentId":330000,"zipcode":312000},{"id":330700,"title":"\u91d1\u534e\u5e02","parentId":330000,"zipcode":321000},{"id":330800,"title":"\u8862\u5dde\u5e02","parentId":330000,"zipcode":324002},{"id":330900,"title":"\u821f\u5c71\u5e02","parentId":330000,"zipcode":316000},{"id":331000,"title":"\u53f0\u5dde\u5e02","parentId":330000,"zipcode":318000},{"id":331100,"title":"\u4e3d\u6c34\u5e02","parentId":330000,"zipcode":323000},{"id":340000,"title":"\u5b89\u5fbd\u7701","parentId":0,"zipcode":0},{"id":340100,"title":"\u5408\u80a5\u5e02","parentId":340000,"zipcode":230001},{"id":340200,"title":"\u829c\u6e56\u5e02","parentId":340000,"zipcode":241000},{"id":340300,"title":"\u868c\u57e0\u5e02","parentId":340000,"zipcode":233000},{"id":340400,"title":"\u6dee\u5357\u5e02","parentId":340000,"zipcode":232001},{"id":340500,"title":"\u9a6c\u978d\u5c71\u5e02","parentId":340000,"zipcode":243001},{"id":340600,"title":"\u6dee\u5317\u5e02","parentId":340000,"zipcode":235000},{"id":340700,"title":"\u94dc\u9675\u5e02","parentId":340000,"zipcode":244000},{"id":340800,"title":"\u5b89\u5e86\u5e02","parentId":340000,"zipcode":246001},{"id":341000,"title":"\u9ec4\u5c71\u5e02","parentId":340000,"zipcode":245000},{"id":341100,"title":"\u6ec1\u5dde\u5e02","parentId":340000,"zipcode":239000},{"id":341200,"title":"\u961c\u9633\u5e02","parentId":340000,"zipcode":236033},{"id":341300,"title":"\u5bbf\u5dde\u5e02","parentId":340000,"zipcode":234000},{"id":341500,"title":"\u516d\u5b89\u5e02","parentId":340000,"zipcode":237000},{"id":341600,"title":"\u4eb3\u5dde\u5e02","parentId":340000,"zipcode":236802},{"id":341700,"title":"\u6c60\u5dde\u5e02","parentId":340000,"zipcode":247100},{"id":341800,"title":"\u5ba3\u57ce\u5e02","parentId":340000,"zipcode":242000},{"id":350000,"title":"\u798f\u5efa\u7701","parentId":0,"zipcode":0},{"id":350100,"title":"\u798f\u5dde\u5e02","parentId":350000,"zipcode":350001},{"id":350200,"title":"\u53a6\u95e8\u5e02","parentId":350000,"zipcode":361003},{"id":350300,"title":"\u8386\u7530\u5e02","parentId":350000,"zipcode":351100},{"id":350400,"title":"\u4e09\u660e\u5e02","parentId":350000,"zipcode":365000},{"id":350500,"title":"\u6cc9\u5dde\u5e02","parentId":350000,"zipcode":362000},{"id":350600,"title":"\u6f33\u5dde\u5e02","parentId":350000,"zipcode":363005},{"id":350700,"title":"\u5357\u5e73\u5e02","parentId":350000,"zipcode":353000},{"id":350800,"title":"\u9f99\u5ca9\u5e02","parentId":350000,"zipcode":364000},{"id":350900,"title":"\u5b81\u5fb7\u5e02","parentId":350000,"zipcode":352100},{"id":360000,"title":"\u6c5f\u897f\u7701","parentId":0,"zipcode":0},{"id":360100,"title":"\u5357\u660c\u5e02","parentId":360000,"zipcode":330008},{"id":360200,"title":"\u666f\u5fb7\u9547\u5e02","parentId":360000,"zipcode":333000},{"id":360300,"title":"\u840d\u4e61\u5e02","parentId":360000,"zipcode":337000},{"id":360400,"title":"\u4e5d\u6c5f\u5e02","parentId":360000,"zipcode":332000},{"id":360500,"title":"\u65b0\u4f59\u5e02","parentId":360000,"zipcode":338025},{"id":360600,"title":"\u9e70\u6f6d\u5e02","parentId":360000,"zipcode":335000},{"id":360700,"title":"\u8d63\u5dde\u5e02","parentId":360000,"zipcode":341000},{"id":360800,"title":"\u5409\u5b89\u5e02","parentId":360000,"zipcode":343000},{"id":360900,"title":"\u5b9c\u6625\u5e02","parentId":360000,"zipcode":336000},{"id":361000,"title":"\u629a\u5dde\u5e02","parentId":360000,"zipcode":344000},{"id":361100,"title":"\u4e0a\u9976\u5e02","parentId":360000,"zipcode":334000},{"id":370000,"title":"\u5c71\u4e1c\u7701","parentId":0,"zipcode":0},{"id":370100,"title":"\u6d4e\u5357\u5e02","parentId":370000,"zipcode":250001},{"id":370200,"title":"\u9752\u5c9b\u5e02","parentId":370000,"zipcode":266001},{"id":370300,"title":"\u6dc4\u535a\u5e02","parentId":370000,"zipcode":255039},{"id":370400,"title":"\u67a3\u5e84\u5e02","parentId":370000,"zipcode":277101},{"id":370500,"title":"\u4e1c\u8425\u5e02","parentId":370000,"zipcode":257093},{"id":370600,"title":"\u70df\u53f0\u5e02","parentId":370000,"zipcode":264010},{"id":370700,"title":"\u6f4d\u574a\u5e02","parentId":370000,"zipcode":261041},{"id":370800,"title":"\u6d4e\u5b81\u5e02","parentId":370000,"zipcode":272119},{"id":370900,"title":"\u6cf0\u5b89\u5e02","parentId":370000,"zipcode":271000},{"id":371000,"title":"\u5a01\u6d77\u5e02","parentId":370000,"zipcode":264200},{"id":371100,"title":"\u65e5\u7167\u5e02","parentId":370000,"zipcode":276800},{"id":371200,"title":"\u83b1\u829c\u5e02","parentId":370000,"zipcode":271100},{"id":371300,"title":"\u4e34\u6c82\u5e02","parentId":370000,"zipcode":276000},{"id":371400,"title":"\u5fb7\u5dde\u5e02","parentId":370000,"zipcode":253000},{"id":371500,"title":"\u804a\u57ce\u5e02","parentId":370000,"zipcode":252052},{"id":371600,"title":"\u6ee8\u5dde\u5e02","parentId":370000,"zipcode":256619},{"id":371700,"title":"\u83cf\u6cfd\u5e02","parentId":370000,"zipcode":274020},{"id":410000,"title":"\u6cb3\u5357\u7701","parentId":0,"zipcode":0},{"id":410100,"title":"\u90d1\u5dde\u5e02","parentId":410000,"zipcode":450000},{"id":410200,"title":"\u5f00\u5c01\u5e02","parentId":410000,"zipcode":475001},{"id":410300,"title":"\u6d1b\u9633\u5e02","parentId":410000,"zipcode":471000},{"id":410400,"title":"\u5e73\u9876\u5c71\u5e02","parentId":410000,"zipcode":467000},{"id":410500,"title":"\u5b89\u9633\u5e02","parentId":410000,"zipcode":455000},{"id":410600,"title":"\u9e64\u58c1\u5e02","parentId":410000,"zipcode":458030},{"id":410700,"title":"\u65b0\u4e61\u5e02","parentId":410000,"zipcode":453000},{"id":410800,"title":"\u7126\u4f5c\u5e02","parentId":410000,"zipcode":454002},{"id":410900,"title":"\u6fee\u9633\u5e02","parentId":410000,"zipcode":457000},{"id":411000,"title":"\u8bb8\u660c\u5e02","parentId":410000,"zipcode":461000},{"id":411100,"title":"\u6f2f\u6cb3\u5e02","parentId":410000,"zipcode":462000},{"id":411200,"title":"\u4e09\u95e8\u5ce1\u5e02","parentId":410000,"zipcode":472000},{"id":411300,"title":"\u5357\u9633\u5e02","parentId":410000,"zipcode":473002},{"id":411400,"title":"\u5546\u4e18\u5e02","parentId":410000,"zipcode":476000},{"id":411500,"title":"\u4fe1\u9633\u5e02","parentId":410000,"zipcode":464000},{"id":411600,"title":"\u5468\u53e3\u5e02","parentId":410000,"zipcode":466000},{"id":411700,"title":"\u9a7b\u9a6c\u5e97\u5e02","parentId":410000,"zipcode":463000},{"id":419001,"title":"\u6d4e\u6e90\u5e02","parentId":410000,"zipcode":454650},{"id":420000,"title":"\u6e56\u5317\u7701","parentId":0,"zipcode":0},{"id":420100,"title":"\u6b66\u6c49\u5e02","parentId":420000,"zipcode":430014},{"id":420200,"title":"\u9ec4\u77f3\u5e02","parentId":420000,"zipcode":435003},{"id":420300,"title":"\u5341\u5830\u5e02","parentId":420000,"zipcode":442000},{"id":420500,"title":"\u5b9c\u660c\u5e02","parentId":420000,"zipcode":443000},{"id":420600,"title":"\u8944\u9633\u5e02","parentId":420000,"zipcode":441021},{"id":420700,"title":"\u9102\u5dde\u5e02","parentId":420000,"zipcode":436000},{"id":420800,"title":"\u8346\u95e8\u5e02","parentId":420000,"zipcode":448000},{"id":420900,"title":"\u5b5d\u611f\u5e02","parentId":420000,"zipcode":432100},{"id":421000,"title":"\u8346\u5dde\u5e02","parentId":420000,"zipcode":434000},{"id":421100,"title":"\u9ec4\u5188\u5e02","parentId":420000,"zipcode":438000},{"id":421200,"title":"\u54b8\u5b81\u5e02","parentId":420000,"zipcode":437000},{"id":421300,"title":"\u968f\u5dde\u5e02","parentId":420000,"zipcode":441300},{"id":422800,"title":"\u6069\u65bd\u571f\u5bb6\u65cf\u82d7\u65cf\u81ea\u6cbb\u5dde","parentId":420000,"zipcode":445000},{"id":429004,"title":"\u4ed9\u6843\u5e02","parentId":420000,"zipcode":433000},{"id":429005,"title":"\u6f5c\u6c5f\u5e02","parentId":420000,"zipcode":433199},{"id":429006,"title":"\u5929\u95e8\u5e02","parentId":420000,"zipcode":431700},{"id":429021,"title":"\u795e\u519c\u67b6\u6797\u533a","parentId":420000,"zipcode":442400},{"id":430000,"title":"\u6e56\u5357\u7701","parentId":0,"zipcode":0},{"id":430100,"title":"\u957f\u6c99\u5e02","parentId":430000,"zipcode":410005},{"id":430200,"title":"\u682a\u6d32\u5e02","parentId":430000,"zipcode":412000},{"id":430300,"title":"\u6e58\u6f6d\u5e02","parentId":430000,"zipcode":411100},{"id":430400,"title":"\u8861\u9633\u5e02","parentId":430000,"zipcode":421001},{"id":430500,"title":"\u90b5\u9633\u5e02","parentId":430000,"zipcode":422000},{"id":430600,"title":"\u5cb3\u9633\u5e02","parentId":430000,"zipcode":414000},{"id":430700,"title":"\u5e38\u5fb7\u5e02","parentId":430000,"zipcode":415000},{"id":430800,"title":"\u5f20\u5bb6\u754c\u5e02","parentId":430000,"zipcode":427000},{"id":430900,"title":"\u76ca\u9633\u5e02","parentId":430000,"zipcode":413000},{"id":431000,"title":"\u90f4\u5dde\u5e02","parentId":430000,"zipcode":423000},{"id":431100,"title":"\u6c38\u5dde\u5e02","parentId":430000,"zipcode":425000},{"id":431200,"title":"\u6000\u5316\u5e02","parentId":430000,"zipcode":418000},{"id":431300,"title":"\u5a04\u5e95\u5e02","parentId":430000,"zipcode":417000},{"id":433100,"title":"\u6e58\u897f\u571f\u5bb6\u65cf\u82d7\u65cf\u81ea\u6cbb\u5dde","parentId":430000,"zipcode":416000},{"id":440000,"title":"\u5e7f\u4e1c\u7701","parentId":0,"zipcode":0},{"id":440100,"title":"\u5e7f\u5dde\u5e02","parentId":440000,"zipcode":510032},{"id":440200,"title":"\u97f6\u5173\u5e02","parentId":440000,"zipcode":512002},{"id":440300,"title":"\u6df1\u5733\u5e02","parentId":440000,"zipcode":518035},{"id":440400,"title":"\u73e0\u6d77\u5e02","parentId":440000,"zipcode":519000},{"id":440500,"title":"\u6c55\u5934\u5e02","parentId":440000,"zipcode":515041},{"id":440600,"title":"\u4f5b\u5c71\u5e02","parentId":440000,"zipcode":528000},{"id":440700,"title":"\u6c5f\u95e8\u5e02","parentId":440000,"zipcode":529000},{"id":440800,"title":"\u6e5b\u6c5f\u5e02","parentId":440000,"zipcode":524047},{"id":440900,"title":"\u8302\u540d\u5e02","parentId":440000,"zipcode":525000},{"id":441200,"title":"\u8087\u5e86\u5e02","parentId":440000,"zipcode":526040},{"id":441300,"title":"\u60e0\u5dde\u5e02","parentId":440000,"zipcode":516000},{"id":441400,"title":"\u6885\u5dde\u5e02","parentId":440000,"zipcode":514021},{"id":441500,"title":"\u6c55\u5c3e\u5e02","parentId":440000,"zipcode":516600},{"id":441600,"title":"\u6cb3\u6e90\u5e02","parentId":440000,"zipcode":517000},{"id":441700,"title":"\u9633\u6c5f\u5e02","parentId":440000,"zipcode":529500},{"id":441800,"title":"\u6e05\u8fdc\u5e02","parentId":440000,"zipcode":511500},{"id":441900,"title":"\u4e1c\u839e\u5e02","parentId":440000,"zipcode":523888},{"id":442000,"title":"\u4e2d\u5c71\u5e02","parentId":440000,"zipcode":528403},{"id":445100,"title":"\u6f6e\u5dde\u5e02","parentId":440000,"zipcode":521000},{"id":445200,"title":"\u63ed\u9633\u5e02","parentId":440000,"zipcode":522000},{"id":445300,"title":"\u4e91\u6d6e\u5e02","parentId":440000,"zipcode":527300},{"id":450000,"title":"\u5e7f\u897f\u58ee\u65cf\u81ea\u6cbb\u533a","parentId":0,"zipcode":0},{"id":450100,"title":"\u5357\u5b81\u5e02","parentId":450000,"zipcode":530028},{"id":450200,"title":"\u67f3\u5dde\u5e02","parentId":450000,"zipcode":545001},{"id":450300,"title":"\u6842\u6797\u5e02","parentId":450000,"zipcode":541100},{"id":450400,"title":"\u68a7\u5dde\u5e02","parentId":450000,"zipcode":543002},{"id":450500,"title":"\u5317\u6d77\u5e02","parentId":450000,"zipcode":536000},{"id":450600,"title":"\u9632\u57ce\u6e2f\u5e02","parentId":450000,"zipcode":538001},{"id":450700,"title":"\u94a6\u5dde\u5e02","parentId":450000,"zipcode":535099},{"id":450800,"title":"\u8d35\u6e2f\u5e02","parentId":450000,"zipcode":537100},{"id":450900,"title":"\u7389\u6797\u5e02","parentId":450000,"zipcode":537000},{"id":451000,"title":"\u767e\u8272\u5e02","parentId":450000,"zipcode":533000},{"id":451100,"title":"\u8d3a\u5dde\u5e02","parentId":450000,"zipcode":542800},{"id":451200,"title":"\u6cb3\u6c60\u5e02","parentId":450000,"zipcode":547000},{"id":451300,"title":"\u6765\u5bbe\u5e02","parentId":450000,"zipcode":546100},{"id":451400,"title":"\u5d07\u5de6\u5e02","parentId":450000,"zipcode":532299},{"id":460000,"title":"\u6d77\u5357\u7701","parentId":0,"zipcode":0},{"id":460100,"title":"\u6d77\u53e3\u5e02","parentId":460000,"zipcode":570000},{"id":460200,"title":"\u4e09\u4e9a\u5e02","parentId":460000,"zipcode":572000},{"id":460300,"title":"\u4e09\u6c99\u5e02","parentId":460000,"zipcode":573199},{"id":460400,"title":"\u510b\u5dde\u5e02","parentId":460000,"zipcode":571700},{"id":469001,"title":"\u4e94\u6307\u5c71\u5e02","parentId":460000,"zipcode":572200},{"id":469002,"title":"\u743c\u6d77\u5e02","parentId":460000,"zipcode":571400},{"id":469005,"title":"\u6587\u660c\u5e02","parentId":460000,"zipcode":571339},{"id":469006,"title":"\u4e07\u5b81\u5e02","parentId":460000,"zipcode":571500},{"id":469007,"title":"\u4e1c\u65b9\u5e02","parentId":460000,"zipcode":572600},{"id":469021,"title":"\u5b9a\u5b89\u53bf","parentId":460000,"zipcode":571200},{"id":469022,"title":"\u5c6f\u660c\u53bf","parentId":460000,"zipcode":571600},{"id":469023,"title":"\u6f84\u8fc8\u53bf","parentId":460000,"zipcode":571900},{"id":469024,"title":"\u4e34\u9ad8\u53bf","parentId":460000,"zipcode":571800},{"id":469025,"title":"\u767d\u6c99\u9ece\u65cf\u81ea\u6cbb\u53bf","parentId":460000,"zipcode":572800},{"id":469026,"title":"\u660c\u6c5f\u9ece\u65cf\u81ea\u6cbb\u53bf","parentId":460000,"zipcode":572700},{"id":469027,"title":"\u4e50\u4e1c\u9ece\u65cf\u81ea\u6cbb\u53bf","parentId":460000,"zipcode":572500},{"id":469028,"title":"\u9675\u6c34\u9ece\u65cf\u81ea\u6cbb\u53bf","parentId":460000,"zipcode":572400},{"id":469029,"title":"\u4fdd\u4ead\u9ece\u65cf\u82d7\u65cf\u81ea\u6cbb\u53bf","parentId":460000,"zipcode":572300},{"id":469030,"title":"\u743c\u4e2d\u9ece\u65cf\u82d7\u65cf\u81ea\u6cbb\u53bf","parentId":460000,"zipcode":572900},{"id":500000,"title":"\u91cd\u5e86\u5e02","parentId":0,"zipcode":0},{"id":500103,"title":"\u6e1d\u4e2d\u533a","parentId":500000,"zipcode":400010},{"id":500101,"title":"\u4e07\u5dde\u533a","parentId":500000,"zipcode":404000},{"id":500102,"title":"\u6daa\u9675\u533a","parentId":500000,"zipcode":408000},{"id":500104,"title":"\u5927\u6e21\u53e3\u533a","parentId":500000,"zipcode":400080},{"id":500105,"title":"\u6c5f\u5317\u533a","parentId":500000,"zipcode":400020},{"id":500106,"title":"\u6c99\u576a\u575d\u533a","parentId":500000,"zipcode":400030},{"id":500107,"title":"\u4e5d\u9f99\u5761\u533a","parentId":500000,"zipcode":400050},{"id":500108,"title":"\u5357\u5cb8\u533a","parentId":500000,"zipcode":400064},{"id":500109,"title":"\u5317\u789a\u533a","parentId":500000,"zipcode":400700},{"id":500110,"title":"\u7da6\u6c5f\u533a","parentId":500000,"zipcode":400800},{"id":500111,"title":"\u5927\u8db3\u533a","parentId":500000,"zipcode":400900},{"id":500112,"title":"\u6e1d\u5317\u533a","parentId":500000,"zipcode":401120},{"id":500113,"title":"\u5df4\u5357\u533a","parentId":500000,"zipcode":401320},{"id":500114,"title":"\u9ed4\u6c5f\u533a","parentId":500000,"zipcode":409700},{"id":500115,"title":"\u957f\u5bff\u533a","parentId":500000,"zipcode":401220},{"id":500116,"title":"\u6c5f\u6d25\u533a","parentId":500000,"zipcode":402260},{"id":500117,"title":"\u5408\u5ddd\u533a","parentId":500000,"zipcode":401520},{"id":500118,"title":"\u6c38\u5ddd\u533a","parentId":500000,"zipcode":402160},{"id":500119,"title":"\u5357\u5ddd\u533a","parentId":500000,"zipcode":408400},{"id":500120,"title":"\u74a7\u5c71\u533a","parentId":500000,"zipcode":402760},{"id":500151,"title":"\u94dc\u6881\u533a","parentId":500000,"zipcode":402560},{"id":500152,"title":"\u6f7c\u5357\u533a","parentId":500000,"zipcode":402660},{"id":500153,"title":"\u8363\u660c\u533a","parentId":500000,"zipcode":402460},{"id":500154,"title":"\u5f00\u5dde\u533a","parentId":500000,"zipcode":405400},{"id":500155,"title":"\u6881\u5e73\u533a","parentId":500000,"zipcode":405200},{"id":500156,"title":"\u6b66\u9686\u533a","parentId":500000,"zipcode":408500},{"id":500229,"title":"\u57ce\u53e3\u53bf","parentId":500000,"zipcode":405900},{"id":500230,"title":"\u4e30\u90fd\u53bf","parentId":500000,"zipcode":408200},{"id":500231,"title":"\u57ab\u6c5f\u53bf","parentId":500000,"zipcode":408300},{"id":500233,"title":"\u5fe0\u53bf","parentId":500000,"zipcode":404300},{"id":500235,"title":"\u4e91\u9633\u53bf","parentId":500000,"zipcode":404500},{"id":500236,"title":"\u5949\u8282\u53bf","parentId":500000,"zipcode":404600},{"id":500237,"title":"\u5deb\u5c71\u53bf","parentId":500000,"zipcode":404700},{"id":500238,"title":"\u5deb\u6eaa\u53bf","parentId":500000,"zipcode":405800},{"id":500240,"title":"\u77f3\u67f1\u571f\u5bb6\u65cf\u81ea\u6cbb\u53bf","parentId":500000,"zipcode":409100},{"id":500241,"title":"\u79c0\u5c71\u571f\u5bb6\u65cf\u82d7\u65cf\u81ea\u6cbb\u53bf","parentId":500000,"zipcode":409900},{"id":500242,"title":"\u9149\u9633\u571f\u5bb6\u65cf\u82d7\u65cf\u81ea\u6cbb\u53bf","parentId":500000,"zipcode":409800},{"id":500243,"title":"\u5f6d\u6c34\u82d7\u65cf\u571f\u5bb6\u65cf\u81ea\u6cbb\u53bf","parentId":500000,"zipcode":409600},{"id":510000,"title":"\u56db\u5ddd\u7701","parentId":0,"zipcode":0},{"id":510100,"title":"\u6210\u90fd\u5e02","parentId":510000,"zipcode":610015},{"id":510300,"title":"\u81ea\u8d21\u5e02","parentId":510000,"zipcode":643000},{"id":510400,"title":"\u6500\u679d\u82b1\u5e02","parentId":510000,"zipcode":617000},{"id":510500,"title":"\u6cf8\u5dde\u5e02","parentId":510000,"zipcode":646000},{"id":510600,"title":"\u5fb7\u9633\u5e02","parentId":510000,"zipcode":618000},{"id":510700,"title":"\u7ef5\u9633\u5e02","parentId":510000,"zipcode":621000},{"id":510800,"title":"\u5e7f\u5143\u5e02","parentId":510000,"zipcode":628000},{"id":510900,"title":"\u9042\u5b81\u5e02","parentId":510000,"zipcode":629000},{"id":511000,"title":"\u5185\u6c5f\u5e02","parentId":510000,"zipcode":641000},{"id":511100,"title":"\u4e50\u5c71\u5e02","parentId":510000,"zipcode":614000},{"id":511300,"title":"\u5357\u5145\u5e02","parentId":510000,"zipcode":637000},{"id":511400,"title":"\u7709\u5c71\u5e02","parentId":510000,"zipcode":620020},{"id":511500,"title":"\u5b9c\u5bbe\u5e02","parentId":510000,"zipcode":644000},{"id":511600,"title":"\u5e7f\u5b89\u5e02","parentId":510000,"zipcode":638000},{"id":511700,"title":"\u8fbe\u5dde\u5e02","parentId":510000,"zipcode":635000},{"id":511800,"title":"\u96c5\u5b89\u5e02","parentId":510000,"zipcode":625000},{"id":511900,"title":"\u5df4\u4e2d\u5e02","parentId":510000,"zipcode":636000},{"id":512000,"title":"\u8d44\u9633\u5e02","parentId":510000,"zipcode":641300},{"id":513200,"title":"\u963f\u575d\u85cf\u65cf\u7f8c\u65cf\u81ea\u6cbb\u5dde","parentId":510000,"zipcode":624000},{"id":513300,"title":"\u7518\u5b5c\u85cf\u65cf\u81ea\u6cbb\u5dde","parentId":510000,"zipcode":626000},{"id":513400,"title":"\u51c9\u5c71\u5f5d\u65cf\u81ea\u6cbb\u5dde","parentId":510000,"zipcode":615000},{"id":520000,"title":"\u8d35\u5dde\u7701","parentId":0,"zipcode":0},{"id":520100,"title":"\u8d35\u9633\u5e02","parentId":520000,"zipcode":550001},{"id":520200,"title":"\u516d\u76d8\u6c34\u5e02","parentId":520000,"zipcode":553400},{"id":520300,"title":"\u9075\u4e49\u5e02","parentId":520000,"zipcode":563000},{"id":520400,"title":"\u5b89\u987a\u5e02","parentId":520000,"zipcode":561000},{"id":520500,"title":"\u6bd5\u8282\u5e02","parentId":520000,"zipcode":551700},{"id":520600,"title":"\u94dc\u4ec1\u5e02","parentId":520000,"zipcode":554300},{"id":522300,"title":"\u9ed4\u897f\u5357\u5e03\u4f9d\u65cf\u82d7\u65cf\u81ea\u6cbb\u5dde","parentId":520000,"zipcode":562400},{"id":522600,"title":"\u9ed4\u4e1c\u5357\u82d7\u65cf\u4f97\u65cf\u81ea\u6cbb\u5dde","parentId":520000,"zipcode":556000},{"id":522700,"title":"\u9ed4\u5357\u5e03\u4f9d\u65cf\u82d7\u65cf\u81ea\u6cbb\u5dde","parentId":520000,"zipcode":558000},{"id":530000,"title":"\u4e91\u5357\u7701","parentId":0,"zipcode":0},{"id":530100,"title":"\u6606\u660e\u5e02","parentId":530000,"zipcode":650500},{"id":530300,"title":"\u66f2\u9756\u5e02","parentId":530000,"zipcode":655000},{"id":530400,"title":"\u7389\u6eaa\u5e02","parentId":530000,"zipcode":653100},{"id":530500,"title":"\u4fdd\u5c71\u5e02","parentId":530000,"zipcode":678000},{"id":530600,"title":"\u662d\u901a\u5e02","parentId":530000,"zipcode":657000},{"id":530700,"title":"\u4e3d\u6c5f\u5e02","parentId":530000,"zipcode":674100},{"id":530800,"title":"\u666e\u6d31\u5e02","parentId":530000,"zipcode":665000},{"id":530900,"title":"\u4e34\u6ca7\u5e02","parentId":530000,"zipcode":677000},{"id":532300,"title":"\u695a\u96c4\u5f5d\u65cf\u81ea\u6cbb\u5dde","parentId":530000,"zipcode":675000},{"id":532500,"title":"\u7ea2\u6cb3\u54c8\u5c3c\u65cf\u5f5d\u65cf\u81ea\u6cbb\u5dde","parentId":530000,"zipcode":661400},{"id":532600,"title":"\u6587\u5c71\u58ee\u65cf\u82d7\u65cf\u81ea\u6cbb\u5dde","parentId":530000,"zipcode":663000},{"id":532800,"title":"\u897f\u53cc\u7248\u7eb3\u50a3\u65cf\u81ea\u6cbb\u5dde","parentId":530000,"zipcode":666100},{"id":532900,"title":"\u5927\u7406\u767d\u65cf\u81ea\u6cbb\u5dde","parentId":530000,"zipcode":671000},{"id":533100,"title":"\u5fb7\u5b8f\u50a3\u65cf\u666f\u9887\u65cf\u81ea\u6cbb\u5dde","parentId":530000,"zipcode":678400},{"id":533300,"title":"\u6012\u6c5f\u5088\u50f3\u65cf\u81ea\u6cbb\u5dde","parentId":530000,"zipcode":673100},{"id":533400,"title":"\u8fea\u5e86\u85cf\u65cf\u81ea\u6cbb\u5dde","parentId":530000,"zipcode":674400},{"id":540000,"title":"\u897f\u85cf\u81ea\u6cbb\u533a","parentId":0,"zipcode":0},{"id":540100,"title":"\u62c9\u8428\u5e02","parentId":540000,"zipcode":850000},{"id":540200,"title":"\u65e5\u5580\u5219\u5e02","parentId":540000,"zipcode":857000},{"id":540300,"title":"\u660c\u90fd\u5e02","parentId":540000,"zipcode":854000},{"id":540400,"title":"\u6797\u829d\u5e02","parentId":540000,"zipcode":850400},{"id":540500,"title":"\u5c71\u5357\u5e02","parentId":540000,"zipcode":856000},{"id":542400,"title":"\u90a3\u66f2\u5730\u533a","parentId":540000,"zipcode":852000},{"id":542500,"title":"\u963f\u91cc\u5730\u533a","parentId":540000,"zipcode":859000},{"id":610000,"title":"\u9655\u897f\u7701","parentId":0,"zipcode":0},{"id":610100,"title":"\u897f\u5b89\u5e02","parentId":610000,"zipcode":710003},{"id":610200,"title":"\u94dc\u5ddd\u5e02","parentId":610000,"zipcode":727100},{"id":610300,"title":"\u5b9d\u9e21\u5e02","parentId":610000,"zipcode":721000},{"id":610400,"title":"\u54b8\u9633\u5e02","parentId":610000,"zipcode":712000},{"id":610500,"title":"\u6e2d\u5357\u5e02","parentId":610000,"zipcode":714000},{"id":610600,"title":"\u5ef6\u5b89\u5e02","parentId":610000,"zipcode":716000},{"id":610700,"title":"\u6c49\u4e2d\u5e02","parentId":610000,"zipcode":723000},{"id":610800,"title":"\u6986\u6797\u5e02","parentId":610000,"zipcode":719000},{"id":610900,"title":"\u5b89\u5eb7\u5e02","parentId":610000,"zipcode":725000},{"id":611000,"title":"\u5546\u6d1b\u5e02","parentId":610000,"zipcode":726000},{"id":620000,"title":"\u7518\u8083\u7701","parentId":0,"zipcode":0},{"id":620100,"title":"\u5170\u5dde\u5e02","parentId":620000,"zipcode":730030},{"id":620200,"title":"\u5609\u5cea\u5173\u5e02","parentId":620000,"zipcode":735100},{"id":620300,"title":"\u91d1\u660c\u5e02","parentId":620000,"zipcode":737100},{"id":620400,"title":"\u767d\u94f6\u5e02","parentId":620000,"zipcode":730900},{"id":620500,"title":"\u5929\u6c34\u5e02","parentId":620000,"zipcode":741000},{"id":620600,"title":"\u6b66\u5a01\u5e02","parentId":620000,"zipcode":733000},{"id":620700,"title":"\u5f20\u6396\u5e02","parentId":620000,"zipcode":734000},{"id":620800,"title":"\u5e73\u51c9\u5e02","parentId":620000,"zipcode":744000},{"id":620900,"title":"\u9152\u6cc9\u5e02","parentId":620000,"zipcode":735000},{"id":621000,"title":"\u5e86\u9633\u5e02","parentId":620000,"zipcode":745000},{"id":621100,"title":"\u5b9a\u897f\u5e02","parentId":620000,"zipcode":743000},{"id":621200,"title":"\u9647\u5357\u5e02","parentId":620000,"zipcode":746000},{"id":622900,"title":"\u4e34\u590f\u56de\u65cf\u81ea\u6cbb\u5dde","parentId":620000,"zipcode":731100},{"id":623000,"title":"\u7518\u5357\u85cf\u65cf\u81ea\u6cbb\u5dde","parentId":620000,"zipcode":747000},{"id":630000,"title":"\u9752\u6d77\u7701","parentId":0,"zipcode":0},{"id":630100,"title":"\u897f\u5b81\u5e02","parentId":630000,"zipcode":810000},{"id":630200,"title":"\u6d77\u4e1c\u5e02","parentId":630000,"zipcode":810700},{"id":632200,"title":"\u6d77\u5317\u85cf\u65cf\u81ea\u6cbb\u5dde","parentId":630000,"zipcode":812200},{"id":632300,"title":"\u9ec4\u5357\u85cf\u65cf\u81ea\u6cbb\u5dde","parentId":630000,"zipcode":811300},{"id":632500,"title":"\u6d77\u5357\u85cf\u65cf\u81ea\u6cbb\u5dde","parentId":630000,"zipcode":813000},{"id":632600,"title":"\u679c\u6d1b\u85cf\u65cf\u81ea\u6cbb\u5dde","parentId":630000,"zipcode":814000},{"id":632700,"title":"\u7389\u6811\u85cf\u65cf\u81ea\u6cbb\u5dde","parentId":630000,"zipcode":815000},{"id":632800,"title":"\u6d77\u897f\u8499\u53e4\u65cf\u85cf\u65cf\u81ea\u6cbb\u5dde","parentId":630000,"zipcode":817000},{"id":640000,"title":"\u5b81\u590f\u56de\u65cf\u81ea\u6cbb\u533a","parentId":0,"zipcode":0},{"id":640100,"title":"\u94f6\u5ddd\u5e02","parentId":640000,"zipcode":750004},{"id":640200,"title":"\u77f3\u5634\u5c71\u5e02","parentId":640000,"zipcode":753000},{"id":640300,"title":"\u5434\u5fe0\u5e02","parentId":640000,"zipcode":751100},{"id":640400,"title":"\u56fa\u539f\u5e02","parentId":640000,"zipcode":756000},{"id":640500,"title":"\u4e2d\u536b\u5e02","parentId":640000,"zipcode":751700},{"id":650000,"title":"\u65b0\u7586\u7ef4\u543e\u5c14\u81ea\u6cbb\u533a","parentId":0,"zipcode":0},{"id":650100,"title":"\u4e4c\u9c81\u6728\u9f50\u5e02","parentId":650000,"zipcode":830002},{"id":650200,"title":"\u514b\u62c9\u739b\u4f9d\u5e02","parentId":650000,"zipcode":834000},{"id":650400,"title":"\u5410\u9c81\u756a\u5e02","parentId":650000,"zipcode":838000},{"id":650500,"title":"\u54c8\u5bc6\u5e02","parentId":650000,"zipcode":839000},{"id":652900,"title":"\u963f\u514b\u82cf\u5730\u533a","parentId":650000,"zipcode":843000},{"id":653100,"title":"\u5580\u4ec0\u5730\u533a","parentId":650000,"zipcode":844000},{"id":653200,"title":"\u548c\u7530\u5730\u533a","parentId":650000,"zipcode":848000},{"id":652300,"title":"\u660c\u5409\u56de\u65cf\u81ea\u6cbb\u5dde","parentId":650000,"zipcode":831100},{"id":652700,"title":"\u535a\u5c14\u5854\u62c9\u8499\u53e4\u81ea\u6cbb\u5dde","parentId":650000,"zipcode":833400},{"id":652800,"title":"\u5df4\u97f3\u90ed\u695e\u8499\u53e4\u81ea\u6cbb\u5dde","parentId":650000,"zipcode":841000},{"id":653000,"title":"\u514b\u5b5c\u52d2\u82cf\u67ef\u5c14\u514b\u5b5c\u81ea\u6cbb\u5dde","parentId":650000,"zipcode":845350},{"id":654000,"title":"\u4f0a\u7281\u54c8\u8428\u514b\u81ea\u6cbb\u5dde","parentId":650000,"zipcode":835100},{"id":654200,"title":"\u5854\u57ce\u5730\u533a","parentId":650000,"zipcode":834700},{"id":654300,"title":"\u963f\u52d2\u6cf0\u5730\u533a","parentId":650000,"zipcode":836500},{"id":659001,"title":"\u77f3\u6cb3\u5b50\u5e02","parentId":650000,"zipcode":832000},{"id":659002,"title":"\u963f\u62c9\u5c14\u5e02","parentId":650000,"zipcode":843300},{"id":659003,"title":"\u56fe\u6728\u8212\u514b\u5e02","parentId":650000,"zipcode":843806},{"id":659004,"title":"\u4e94\u5bb6\u6e20\u5e02","parentId":650000,"zipcode":831300},{"id":659005,"title":"\u5317\u5c6f\u5e02","parentId":650000,"zipcode":836000},{"id":659006,"title":"\u94c1\u95e8\u5173\u5e02","parentId":650000,"zipcode":836000},{"id":659007,"title":"\u53cc\u6cb3\u5e02","parentId":650000,"zipcode":833408},{"id":659008,"title":"\u53ef\u514b\u8fbe\u62c9\u5e02","parentId":650000,"zipcode":835219},{"id":659009,"title":"\u6606\u7389\u5e02","parentId":650000,"zipcode":848116},{"id":810000,"title":"\u9999\u6e2f\u7279\u522b\u884c\u653f\u533a","parentId":0,"zipcode":0},{"id":820000,"title":"\u6fb3\u95e8\u7279\u522b\u884c\u653f\u533a","parentId":0,"zipcode":0},{"id":710000,"title":"\u53f0\u6e7e\u7701","parentId":0,"zipcode":0}]